CCSDS_OMM_VERS = 2.0
CREATION_DATE  = 
ORIGINATOR     = 

OBJECT_NAME    = AETHER-4
OBJECT_ID      = 2026-004N
CENTER_NAME    = EARTH
REF_FRAME      = TEME
TIME_SYSTEM    = UTC
MEAN_ELEMENT_THEORY = SGP/SGP4

EPOCH          = 2026-02-09T11:07:52.185216
MEAN_MOTION    = 14.87969004
ECCENTRICITY   = .0005112
INCLINATION    = 97.8019
RA_OF_ASC_NODE = 41.1560
ARG_OF_PERICENTER = 167.8181
MEAN_ANOMALY   = 192.3160

EPHEMERIS_TYPE = 0
CLASSIFICATION_TYPE = U
NORAD_CAT_ID   = 67375
ELEMENT_SET_NO = 999
REV_AT_EPOCH   = 430
BSTAR          = .3748E-3
MEAN_MOTION_DOT = .3384E-4
MEAN_MOTION_DDOT = 0

CCSDS_OMM_VERS = 2.0
CREATION_DATE  = 
ORIGINATOR     = 

OBJECT_NAME    = AETHER-5
OBJECT_ID      = 2026-004P
CENTER_NAME    = EARTH
REF_FRAME      = TEME
TIME_SYSTEM    = UTC
MEAN_ELEMENT_THEORY = SGP/SGP4

EPOCH          = 2026-02-09T11:12:03.798432
MEAN_MOTION    = 14.87812073
ECCENTRICITY   = .0005421
INCLINATION    = 97.8016
RA_OF_ASC_NODE = 41.1510
ARG_OF_PERICENTER = 173.5399
MEAN_ANOMALY   = 186.5888

EPHEMERIS_TYPE = 0
CLASSIFICATION_TYPE = U
NORAD_CAT_ID   = 67376
ELEMENT_SET_NO = 999
REV_AT_EPOCH   = 430
BSTAR          = .40456E-3
MEAN_MOTION_DOT = .3643E-4
MEAN_MOTION_DDOT = 0

CCSDS_OMM_VERS = 2.0
CREATION_DATE  = 
ORIGINATOR     = 

OBJECT_NAME    = AETHER-6
OBJECT_ID      = 2026-004Q
CENTER_NAME    = EARTH
REF_FRAME      = TEME
TIME_SYSTEM    = UTC
MEAN_ELEMENT_THEORY = SGP/SGP4

EPOCH          = 2026-02-09T11:07:23.901312
MEAN_MOTION    = 14.87987584
ECCENTRICITY   = .0005089
INCLINATION    = 97.8018
RA_OF_ASC_NODE = 41.1561
ARG_OF_PERICENTER = 166.6965
MEAN_ANOMALY   = 193.4386

EPHEMERIS_TYPE = 0
CLASSIFICATION_TYPE = U
NORAD_CAT_ID   = 67377
ELEMENT_SET_NO = 999
REV_AT_EPOCH   = 429
BSTAR          = .34109E-3
MEAN_MOTION_DOT = .3076E-4
MEAN_MOTION_DDOT = 0

CCSDS_OMM_VERS = 2.0
CREATION_DATE  = 
ORIGINATOR     = 

OBJECT_NAME    = AETHER-7
OBJECT_ID      = 2026-004R
CENTER_NAME    = EARTH
REF_FRAME      = TEME
TIME_SYSTEM    = UTC
MEAN_ELEMENT_THEORY = SGP/SGP4

EPOCH          = 2026-02-09T11:14:04.822368
MEAN_MOTION    = 14.87742208
ECCENTRICITY   = .0004747
INCLINATION    = 97.7989
RA_OF_ASC_NODE = 41.1413
ARG_OF_PERICENTER = 181.0532
MEAN_ANOMALY   = 179.0675

EPHEMERIS_TYPE = 0
CLASSIFICATION_TYPE = U
NORAD_CAT_ID   = 67378
ELEMENT_SET_NO = 999
REV_AT_EPOCH   = 429
BSTAR          = .38547E-3
MEAN_MOTION_DOT = .3462E-4
MEAN_MOTION_DDOT = 0

CCSDS_OMM_VERS = 2.0
CREATION_DATE  = 
ORIGINATOR     = 

OBJECT_NAME    = AETHER-8
OBJECT_ID      = 2026-004S
CENTER_NAME    = EARTH
REF_FRAME      = TEME
TIME_SYSTEM    = UTC
MEAN_ELEMENT_THEORY = SGP/SGP4

EPOCH          = 2026-02-09T11:13:47.192448
MEAN_MOTION    = 14.87751125
ECCENTRICITY   = .0005295
INCLINATION    = 97.7995
RA_OF_ASC_NODE = 41.1437
ARG_OF_PERICENTER = 178.4958
MEAN_ANOMALY   = 181.6275

EPHEMERIS_TYPE = 0
CLASSIFICATION_TYPE = U
NORAD_CAT_ID   = 67379
ELEMENT_SET_NO = 999
REV_AT_EPOCH   = 429
BSTAR          = .3825E-3
MEAN_MOTION_DOT = .3436E-4
MEAN_MOTION_DDOT = 0

CCSDS_OMM_VERS = 2.0
CREATION_DATE  = 
ORIGINATOR     = 

OBJECT_NAME    = AETHER-9
OBJECT_ID      = 2026-004T
CENTER_NAME    = EARTH
REF_FRAME      = TEME
TIME_SYSTEM    = UTC
MEAN_ELEMENT_THEORY = SGP/SGP4

EPOCH          = 2026-02-09T11:11:10.714272
MEAN_MOTION    = 14.87851166
ECCENTRICITY   = .0004837
INCLINATION    = 97.7985
RA_OF_ASC_NODE = 41.1439
ARG_OF_PERICENTER = 177.0744
MEAN_ANOMALY   = 183.0502

EPHEMERIS_TYPE = 0
CLASSIFICATION_TYPE = U
NORAD_CAT_ID   = 67380
ELEMENT_SET_NO = 999
REV_AT_EPOCH   = 429
BSTAR          = .37635E-3
MEAN_MOTION_DOT = .3388E-4
MEAN_MOTION_DDOT = 0

CCSDS_OMM_VERS = 2.0
CREATION_DATE  = 
ORIGINATOR     = 

OBJECT_NAME    = AETHER-10
OBJECT_ID      = 2026-004U
CENTER_NAME    = EARTH
REF_FRAME      = TEME
TIME_SYSTEM    = UTC
MEAN_ELEMENT_THEORY = SGP/SGP4

EPOCH          = 2026-02-09T04:39:53.516160
MEAN_MOTION    = 14.88011337
ECCENTRICITY   = .00053048
INCLINATION    = 97.8020
RA_OF_ASC_NODE = 40.8942
ARG_OF_PERICENTER = 169.3757
MEAN_ANOMALY   = 190.7573

EPHEMERIS_TYPE = 0
CLASSIFICATION_TYPE = U
NORAD_CAT_ID   = 67381
ELEMENT_SET_NO = 999
REV_AT_EPOCH   = 425
BSTAR          = .42789081E-3
MEAN_MOTION_DOT = .3875E-4
MEAN_MOTION_DDOT = 0

CCSDS_OMM_VERS = 2.0
CREATION_DATE  = 
ORIGINATOR     = 

OBJECT_NAME    = AETHER-11
OBJECT_ID      = 2026-004V
CENTER_NAME    = EARTH
REF_FRAME      = TEME
TIME_SYSTEM    = UTC
MEAN_ELEMENT_THEORY = SGP/SGP4

EPOCH          = 2026-02-09T11:05:45.468384
MEAN_MOTION    = 14.88039165
ECCENTRICITY   = .0004814
INCLINATION    = 97.8014
RA_OF_ASC_NODE = 41.1564
ARG_OF_PERICENTER = 164.1649
MEAN_ANOMALY   = 195.9719

EPHEMERIS_TYPE = 0
CLASSIFICATION_TYPE = U
NORAD_CAT_ID   = 67382
ELEMENT_SET_NO = 999
REV_AT_EPOCH   = 429
BSTAR          = .36966E-3
MEAN_MOTION_DOT = .3343E-4
MEAN_MOTION_DDOT = 0

CCSDS_OMM_VERS = 2.0
CREATION_DATE  = 
ORIGINATOR     = 

OBJECT_NAME    = AETHER-12
OBJECT_ID      = 2026-004W
CENTER_NAME    = EARTH
REF_FRAME      = TEME
TIME_SYSTEM    = UTC
MEAN_ELEMENT_THEORY = SGP/SGP4

EPOCH          = 2026-02-09T11:13:21.977472
MEAN_MOTION    = 14.87768950
ECCENTRICITY   = .0005123
INCLINATION    = 97.7991
RA_OF_ASC_NODE = 41.1429
ARG_OF_PERICENTER = 179.2591
MEAN_ANOMALY   = 180.8634

EPHEMERIS_TYPE = 0
CLASSIFICATION_TYPE = U
NORAD_CAT_ID   = 67383
ELEMENT_SET_NO = 999
REV_AT_EPOCH   = 429
BSTAR          = .3985E-3
MEAN_MOTION_DOT = .3584E-4
MEAN_MOTION_DDOT = 0

CCSDS_OMM_VERS = 2.0
CREATION_DATE  = 
ORIGINATOR     = 

OBJECT_NAME    = TWILIGHT X
OBJECT_ID      = 2026-004X
CENTER_NAME    = EARTH
REF_FRAME      = TEME
TIME_SYSTEM    = UTC
MEAN_ELEMENT_THEORY = SGP/SGP4

EPOCH          = 2026-02-09T11:01:39.282816
MEAN_MOTION    = 14.88209668
ECCENTRICITY   = .0004244
INCLINATION    = 97.7987
RA_OF_ASC_NODE = 41.1536
ARG_OF_PERICENTER = 166.3400
MEAN_ANOMALY   = 193.7932

EPHEMERIS_TYPE = 0
CLASSIFICATION_TYPE = U
NORAD_CAT_ID   = 67384
ELEMENT_SET_NO = 999
REV_AT_EPOCH   = 429
BSTAR          = .75787E-3
MEAN_MOTION_DOT = .6942E-4
MEAN_MOTION_DDOT = 0

CCSDS_OMM_VERS = 2.0
CREATION_DATE  = 
ORIGINATOR     = 

OBJECT_NAME    = TWILIGHT Y
OBJECT_ID      = 2026-004Y
CENTER_NAME    = EARTH
REF_FRAME      = TEME
TIME_SYSTEM    = UTC
MEAN_ELEMENT_THEORY = SGP/SGP4

EPOCH          = 2026-02-09T10:58:23.457216
MEAN_MOTION    = 14.88471995
ECCENTRICITY   = .0004338
INCLINATION    = 97.7999
RA_OF_ASC_NODE = 41.1595
ARG_OF_PERICENTER = 158.5552
MEAN_ANOMALY   = 201.5847

EPHEMERIS_TYPE = 0
CLASSIFICATION_TYPE = U
NORAD_CAT_ID   = 67385
ELEMENT_SET_NO = 999
REV_AT_EPOCH   = 429
BSTAR          = .78411E-3
MEAN_MOTION_DOT = .7232E-4
MEAN_MOTION_DDOT = 0

CCSDS_OMM_VERS = 2.0
CREATION_DATE  = 
ORIGINATOR     = 

OBJECT_NAME    = TWILIGHT Z
OBJECT_ID      = 2026-004Z
CENTER_NAME    = EARTH
REF_FRAME      = TEME
TIME_SYSTEM    = UTC
MEAN_ELEMENT_THEORY = SGP/SGP4

EPOCH          = 2026-02-09T10:56:51.097344
MEAN_MOTION    = 14.88371931
ECCENTRICITY   = .0003048
INCLINATION    = 97.7980
RA_OF_ASC_NODE = 41.1568
ARG_OF_PERICENTER = 157.2591
MEAN_ANOMALY   = 202.8761

EPHEMERIS_TYPE = 0
CLASSIFICATION_TYPE = U
NORAD_CAT_ID   = 67386
ELEMENT_SET_NO = 999
REV_AT_EPOCH   = 429
BSTAR          = .39966E-3
MEAN_MOTION_DOT = .3648E-4
MEAN_MOTION_DDOT = 0

