AETHER-4                
1 67375U 26004N   26040.46379844  .00003384  00000+0  37480-3 0  9999
2 67375  97.8019  41.1560 0005112 167.8181 192.3160 14.87969004  4309
AETHER-5                
1 67376U 26004P   26040.46671063  .00003643  00000+0  40456-3 0  9993
2 67376  97.8016  41.1510 0005421 173.5399 186.5888 14.87812073  4305
AETHER-6                
1 67377U 26004Q   26040.46347108  .00003076  00000+0  34109-3 0  9992
2 67377  97.8018  41.1561 0005089 166.6965 193.4386 14.87987584  4294
AETHER-7                
1 67378U 26004R   26040.46811137  .00003462  00000+0  38547-3 0  9990
2 67378  97.7989  41.1413 0004747 181.0532 179.0675 14.87742208  4291
AETHER-8                
1 67379U 26004S   26040.46790732  .00003436  00000+0  38250-3 0  9990
2 67379  97.7995  41.1437 0005295 178.4958 181.6275 14.87751125  4299
AETHER-9                
1 67380U 26004T   26040.46609623  .00003388  00000+0  37635-3 0  9992
2 67380  97.7985  41.1439 0004837 177.0744 183.0502 14.87851166  4296
AETHER-10               
1 67381U 26004U   26040.19436940  .00003875  00000+0  42789-3 0  9990
2 67381  97.8020  40.8942 0005304 169.3757 190.7573 14.88011337  4259
AETHER-11               
1 67382U 26004V   26040.46233181  .00003343  00000+0  36966-3 0  9993
2 67382  97.8014  41.1564 0004814 164.1649 195.9719 14.88039165  4297
AETHER-12               
1 67383U 26004W   26040.46761548  .00003584  00000+0  39850-3 0  9999
2 67383  97.7991  41.1429 0005123 179.2591 180.8634 14.87768950  4297
TWILIGHT X              
1 67384U 26004X   26040.45948244  .00006942  00000+0  75787-3 0  9999
2 67384  97.7987  41.1536 0004244 166.3400 193.7932 14.88209668  4292
TWILIGHT Y              
1 67385U 26004Y   26040.45721594  .00007232  00000+0  78411-3 0  9997
2 67385  97.7999  41.1595 0004338 158.5552 201.5847 14.88471995  4293
TWILIGHT Z              
1 67386U 26004Z   26040.45614696  .00003648  00000+0  39966-3 0  9991
2 67386  97.7980  41.1568 0003048 157.2591 202.8761 14.88371931  4298
